{"type": "FeatureCollection", "features": [ {"type": "Feature", "properties": {"norad_id": 38728, "name": "FENGYUN 1C DEB", "group": "fengyun-1c-debris", "lat": 19.42510828699233, "lon": 150.08597067505977, "alt_km": 656.4060643477942, "timestamp": "2025-12-06T07:31:40.526932+00:00", "meta": {"OBJECT_NAME": "FENGYUN 1C DEB", "OBJECT_ID": "1999-025ETV", "EPOCH": "2025-11-16T05:14:29.255424", "MEAN_MOTION": 14.70051998, "ECCENTRICITY": 0.007529, "INCLINATION": 99.2572, "RA_OF_ASC_NODE": 304.0044, "ARG_OF_PERICENTER": 134.9946, "MEAN_ANOMALY": 282.883, "EPHEMERIS_TYPE": 0, "CLASSIFICATION_TYPE": "U", "NORAD_CAT_ID": 38728, "ELEMENT_SET_NO": 999, "REV_AT_EPOCH": 65221, "BSTAR": 0.0016686128, "MEAN_MOTION_DOT": 0.00010414, "MEAN_MOTION_DDOT": 0}, "tle": {"line1": "1 38728U 99025ETV 25320.21839416  .00010414  00000+0  16686-2 0  9997", "line2": "2 38728  99.2572 304.0044 0075290 134.9946 282.8830 14.70051998652219"}}, "geometry": {"type": "Point", "coordinates": [150.08597067505977, 19.42510828699233]}}, {"type": "Feature", "properties": {"norad_id": 38789, "name": "FENGYUN 1C DEB", "group": "fengyun-1c-debris", "lat": -50.50520148770001, "lon": -122.99148165543241, "alt_km": 758.0402407918837, "timestamp": "2025-12-06T07:31:40.526943+00:00", "meta": {"OBJECT_NAME": "FENGYUN 1C DEB", "OBJECT_ID": "1999-025EUD", "EPOCH": "2025-12-03T21:53:36.078432", "MEAN_MOTION": 14.45729887, "ECCENTRICITY": 0.02081586, "INCLINATION": 98.8566, "RA_OF_ASC_NODE": 223.5958, "ARG_OF_PERICENTER": 51.6084, "MEAN_ANOMALY": 7.9264, "EPHEMERIS_TYPE": 0, "CLASSIFICATION_TYPE": "U", "NORAD_CAT_ID": 38789, "ELEMENT_SET_NO": 999, "REV_AT_EPOCH": 61718, "BSTAR": 0.0016033778, "MEAN_MOTION_DOT": 7.38e-05, "MEAN_MOTION_DDOT": 0}, "tle": {"line1": "1 38789U 99025EUD 25337.91222313  .00007380  00000+0  16034-2 0  9996", "line2": "2 38789  98.8566 223.5958 0208158  51.6084   7.9264 14.45729887617187"}}, "geometry": {"type": "Point", "coordinates": [-122.99148165543241, -50.50520148770001]}}, {"type": "Feature", "properties": {"norad_id": 38795, "name": "FENGYUN 1C DEB", "group": "fengyun-1c-debris", "lat": -53.42450100209589, "lon": 172.3275825899917, "alt_km": 846.672980499472, "timestamp": "2025-12-06T07:31:40.526953+00:00", "meta": {"OBJECT_NAME": "FENGYUN 1C DEB", "OBJECT_ID": "1999-025EUK", "EPOCH": "2025-12-02T08:24:42.599520", "MEAN_MOTION": 13.29800561, "ECCENTRICITY": 0.05040855, "INCLINATION": 98.7022, "RA_OF_ASC_NODE": 0.8783, "ARG_OF_PERICENTER": 281.6333, "MEAN_ANOMALY": 72.8653, "EPHEMERIS_TYPE": 0, "CLASSIFICATION_TYPE": "U", "NORAD_CAT_ID": 38795, "ELEMENT_SET_NO": 999, "REV_AT_EPOCH": 78374, "BSTAR": 0.003965023, "MEAN_MOTION_DOT": 3.692e-05, "MEAN_MOTION_DDOT": 0}, "tle": {"line1": "1 38795U 99025EUK 25336.35049305  .00003692  00000+0  39650-2 0  9999", "line2": "2 38795  98.7022   0.8783 0504085 281.6333  72.8653 13.29800561783741"}}, "geometry": {"type": "Point", "coordinates": [172.3275825899917, -53.42450100209589]}}, {"type": "Feature", "properties": {"norad_id": 38797, "name": "FENGYUN 1C DEB", "group": "fengyun-1c-debris", "lat": 39.10682098352723, "lon": -134.46825307584777, "alt_km": 1199.0159100357241, "timestamp": "2025-12-06T07:31:40.526963+00:00", "meta": {"OBJECT_NAME": "FENGYUN 1C DEB", "OBJECT_ID": "1999-025EUM", "EPOCH": "2025-12-04T11:14:12.365088", "MEAN_MOTION": 13.61604449, "ECCENTRICITY": 0.0245033, "INCLINATION": 99.4845, "RA_OF_ASC_NODE": 231.5475, "ARG_OF_PERICENTER": 242.5274, "MEAN_ANOMALY": 115.0763, "EPHEMERIS_TYPE": 0, "CLASSIFICATION_TYPE": "U", "NORAD_CAT_ID": 38797, "ELEMENT_SET_NO": 999, "REV_AT_EPOCH": 59170, "BSTAR": 0.00058643, "MEAN_MOTION_DOT": 5.04e-06, "MEAN_MOTION_DDOT": 0}, "tle": {"line1": "1 38797U 99025EUM 25338.46819867  .00000504  00000+0  58643-3 0  9996", "line2": "2 38797  99.4845 231.5475 0245033 242.5274 115.0763 13.61604449591708"}}, "geometry": {"type": "Point", "coordinates": [-134.46825307584777, 39.10682098352723]}}, {"type": "Feature", "properties": {"norad_id": 38799, "name": "FENGYUN 1C DEB", "group": "fengyun-1c-debris", "lat": -16.0961377539638, "lon": -126.65175158561779, "alt_km": 851.345525616407, "timestamp": "2025-12-06T07:31:40.526973+00:00", "meta": {"OBJECT_NAME": "FENGYUN 1C DEB", "OBJECT_ID": "1999-025EUP", "EPOCH": "2025-11-26T11:13:58.529856", "MEAN_MOTION": 14.48569792, "ECCENTRICITY": 0.01649657, "INCLINATION": 98.4067, "RA_OF_ASC_NODE": 45.9896, "ARG_OF_PERICENTER": 40.0513, "MEAN_ANOMALY": 321.2709, "EPHEMERIS_TYPE": 0, "CLASSIFICATION_TYPE": "U", "NORAD_CAT_ID": 38799, "ELEMENT_SET_NO": 999, "REV_AT_EPOCH": 63803, "BSTAR": 0.00099755644, "MEAN_MOTION_DOT": 4.406e-05, "MEAN_MOTION_DDOT": 0}, "tle": {"line1": "1 38799U 99025EUP 25330.46803854  .00004406  00000+0  99756-3 0  9994", "line2": "2 38799  98.4067  45.9896 0164965  40.0513 321.2709 14.48569792638036"}}, "geometry": {"type": "Point", "coordinates": [-126.65175158561779, -16.0961377539638]}}, {"type": "Feature", "properties": {"norad_id": 38801, "name": "FENGYUN 1C DEB", "group": "fengyun-1c-debris", "lat": -57.807472322522145, "lon": 44.74853239580896, "alt_km": 721.8332475742982, "timestamp": "2025-12-06T07:31:40.526984+00:00", "meta": {"OBJECT_NAME": "FENGYUN 1C DEB", "OBJECT_ID": "1999-025EUR", "EPOCH": "2025-12-03T21:37:27.003072", "MEAN_MOTION": 14.24753133, "ECCENTRICITY": 0.03476763, "INCLINATION": 98.3754, "RA_OF_ASC_NODE": 28.908, "ARG_OF_PERICENTER": 17.9855, "MEAN_ANOMALY": 159.1973, "EPHEMERIS_TYPE": 0, "CLASSIFICATION_TYPE": "U", "NORAD_CAT_ID": 38801, "ELEMENT_SET_NO": 999, "REV_AT_EPOCH": 64234, "BSTAR": 0.00093380257, "MEAN_MOTION_DOT": 4.05e-05, "MEAN_MOTION_DDOT": 0}, "tle": {"line1": "1 38801U 99025EUR 25337.90100698  .00004050  00000+0  93380-3 0  9992", "line2": "2 38801  98.3754  28.9080 0347676  17.9855 159.1973 14.24753133642340"}}, "geometry": {"type": "Point", "coordinates": [44.74853239580896, -57.807472322522145]}}, {"type": "Feature", "properties": {"norad_id": 38803, "name": "FENGYUN 1C DEB", "group": "fengyun-1c-debris", "lat": -20.750092219110087, "lon": 160.41314793499322, "alt_km": 857.0719569280709, "timestamp": "2025-12-06T07:31:40.526994+00:00", "meta": {"OBJECT_NAME": "FENGYUN 1C DEB", "OBJECT_ID": "1999-025EUT", "EPOCH": "2025-12-02T23:18:31.375872", "MEAN_MOTION": 14.23518858, "ECCENTRICITY": 0.00644877, "INCLINATION": 99.1384, "RA_OF_ASC_NODE": 340.4394, "ARG_OF_PERICENTER": 63.9975, "MEAN_ANOMALY": 296.7825, "EPHEMERIS_TYPE": 0, "CLASSIFICATION_TYPE": "U", "NORAD_CAT_ID": 38803, "ELEMENT_SET_NO": 999, "REV_AT_EPOCH": 60073, "BSTAR": 0.0027014694, "MEAN_MOTION_DOT": 6.236e-05, "MEAN_MOTION_DDOT": 0}, "tle": {"line1": "1 38803U 99025EUT 25336.97119648  .00006236  00000+0  27015-2 0  9994", "line2": "2 38803  99.1384 340.4394 0064487  63.9975 296.7825 14.23518858600733"}}, "geometry": {"type": "Point", "coordinates": [160.41314793499322, -20.750092219110087]}}, {"type": "Feature", "properties": {"norad_id": 38809, "name": "FENGYUN 1C DEB", "group": "fengyun-1c-debris", "lat": -79.02575055372711, "lon": 41.894353749377764, "alt_km": 780.0554180783574, "timestamp": "2025-12-06T07:31:40.527004+00:00", "meta": {"OBJECT_NAME": "FENGYUN 1C DEB", "OBJECT_ID": "1999-025EUZ", "EPOCH": "2025-12-05T06:30:23.152320", "MEAN_MOTION": 14.18136991, "ECCENTRICITY": 0.02231713, "INCLINATION": 98.5894, "RA_OF_ASC_NODE": 349.676, "ARG_OF_PERICENTER": 349.5929, "MEAN_ANOMALY": 10.0666, "EPHEMERIS_TYPE": 0, "CLASSIFICATION_TYPE": "U", "NORAD_CAT_ID": 38809, "ELEMENT_SET_NO": 999, "REV_AT_EPOCH": 69100, "BSTAR": 0.0011831883, "MEAN_MOTION_DOT": 3.063e-05, "MEAN_MOTION_DDOT": 0}, "tle": {"line1": "1 38809U 99025EUZ 25339.27110130  .00003063  00000+0  11832-2 0  9998", "line2": "2 38809  98.5894 349.6760 0223171 349.5929  10.0666 14.18136991691003"}}, "geometry": {"type": "Point", "coordinates": [41.894353749377764, -79.02575055372711]}}, {"type": "Feature", "properties": {"norad_id": 38813, "name": "FENGYUN 1C DEB", "group": "fengyun-1c-debris", "lat": -24.281569098363008, "lon": -18.618623766548502, "alt_km": 834.4463598831771, "timestamp": "2025-12-06T07:31:40.527014+00:00", "meta": {"OBJECT_NAME": "FENGYUN 1C DEB", "OBJECT_ID": "1999-025EVD", "EPOCH": "2025-12-05T06:16:48.425376", "MEAN_MOTION": 14.2013827, "ECCENTRICITY": 0.00062828, "INCLINATION": 99.3464, "RA_OF_ASC_NODE": 336.01, "ARG_OF_PERICENTER": 134.0016, "MEAN_ANOMALY": 226.1677, "EPHEMERIS_TYPE": 0, "CLASSIFICATION_TYPE": "U", "NORAD_CAT_ID": 38813, "ELEMENT_SET_NO": 999, "REV_AT_EPOCH": 48144, "BSTAR": 0.00085859409, "MEAN_MOTION_DOT": 1.783e-05, "MEAN_MOTION_DDOT": 0}, "tle": {"line1": "1 38813U 99025EVD 25339.26167159  .00001783  00000+0  85859-3 0  9993", "line2": "2 38813  99.3464 336.0100 0006282 134.0016 226.1677 14.20138270481446"}}, "geometry": {"type": "Point", "coordinates": [-18.618623766548502, -24.281569098363008]}}, {"type": "Feature", "properties": {"norad_id": 38817, "name": "FENGYUN 1C DEB", "group": "fengyun-1c-debris", "lat": -28.932395289054888, "lon": -143.7499663916774, "alt_km": 1044.6383956884729, "timestamp": "2025-12-06T07:31:40.527024+00:00", "meta": {"OBJECT_NAME": "FENGYUN 1C DEB", "OBJECT_ID": "1999-025EVH", "EPOCH": "2025-12-04T20:17:46.492800", "MEAN_MOTION": 13.57650591, "ECCENTRICITY": 0.0290878, "INCLINATION": 98.6006, "RA_OF_ASC_NODE": 210.1644, "ARG_OF_PERICENTER": 64.8865, "MEAN_ANOMALY": 298.2158, "EPHEMERIS_TYPE": 0, "CLASSIFICATION_TYPE": "U", "NORAD_CAT_ID": 38817, "ELEMENT_SET_NO": 999, "REV_AT_EPOCH": 65727, "BSTAR": 0.0030312, "MEAN_MOTION_DOT": 2.834e-05, "MEAN_MOTION_DDOT": 0}, "tle": {"line1": "1 38817U 99025EVH 25338.84567700  .00002834  00000+0  30312-2 0  9997", "line2": "2 38817  98.6006 210.1644 0290878  64.8865 298.2158 13.57650591657271"}}, "geometry": {"type": "Point", "coordinates": [-143.7499663916774, -28.932395289054888]}}]}